QIANFAN-35              
1 61568U 24185S   26064.59097433  .00001185  00000+0  47109-3 0  9992
2 61568  88.9745  67.1346 0007484  32.1827 327.9823 14.28119018 82001
QIANFAN-36              
1 61569U 24185T   26064.63256580  .00000124  00000+0  16060-3 0  9992
2 61569  88.9717  72.3932 0007001 146.2472 213.9129 13.55613731 79153
QIANFAN-37              
1 62238U 24232B   26064.64783076  .00000090  00000+0  12038-3 0  9998
2 62238  89.0052  32.9548 0001717  97.0433 263.0914 13.51005328110364
QIANFAN-38              
1 62239U 24232C   26064.59840472  .00000087  00000+0  11561-3 0  9993
2 62239  89.0059  32.8812 0013424 323.4187  36.6047 13.51003890110414
QIANFAN-39              
1 62240U 24232D   26064.61041992  .00000540  00000+0  22227-3 0  9993
2 62240  89.0057  27.8287 0016564 159.0167 201.1709 14.25436572113194
QIANFAN-40              
1 62241U 24232E   26064.63132018  .00000080  00000+0  10480-3 0  9993
2 62241  89.0087  32.4856 0012731 332.4410  27.6065 13.51003066110786
QIANFAN-41              
1 62242U 24232F   26064.63959143  .00000096  00000+0  12970-3 0  9993
2 62242  89.0057  32.8272 0012717 319.3604  40.6597 13.51004804110442
QIANFAN-42              
1 62243U 24232G   26064.59091433  .00000510  00000+0  21345-3 0  9995
2 62243  89.0055  27.8904 0015184 164.4994 195.6667 14.24530420113169
QIANFAN-43              
1 62244U 24232H   26064.56137202  .00000088  00000+0  11818-3 0  9992
2 62244  89.0061  32.9040 0014394 324.4287  35.5904 13.51004794 79043
QIANFAN-44              
1 62245U 24232J   26064.62310028  .00000075  00000+0  97740-4 0  9994
2 62245  89.0060  32.7072 0012531 322.0346  37.9921 13.51002725110523
QIANFAN-45              
1 62246U 24232K   26064.59021147  .00000070  00000+0  90214-4 0  9996
2 62246  89.0063  32.8599 0013176 321.3379  38.6828 13.51000396110443
QIANFAN-46              
1 62247U 24232L   26064.61485677  .00000091  00000+0  12253-3 0  9991
2 62247  89.0059  32.9230 0013408 327.1951  32.8366 13.51003377110401
QIANFAN-47              
1 62248U 24232M   26064.61896848  .00000073  00000+0  94828-4 0  9997
2 62248  89.0055  32.8523 0013801 326.0177  34.0089 13.51003227110430
QIANFAN-48              
1 62249U 24232N   26064.58194494  .00000068  00000+0  87476-4 0  9997
2 62249  89.0059  32.8611 0016139 327.8710  32.1457 13.51003399110430
QIANFAN-49              
1 62250U 24232P   26064.64366831  .00000077  00000+0  10035-3 0  9998
2 62250  89.0058  32.8668 0013048 323.2939  36.7317 13.51002536 79039
QIANFAN-50              
1 62251U 24232Q   26064.59428053  .00000081  00000+0  10752-3 0  9999
2 62251  89.0064  32.8844 0014742 324.0728  35.9431 13.51003479 79057
QIANFAN-51              
1 62252U 24232R   26064.57785420  .00000075  00000+0  97773-4 0  9994
2 62252  89.0058  32.8748 0012377 329.4544  30.5885 13.51004282 79047
