[{"OBJECT_NAME":"QIANFAN-35","OBJECT_ID":"2024-185S","EPOCH":"2026-03-05T14:11:00.182112","MEAN_MOTION":14.28119018,"ECCENTRICITY":0.0007484,"INCLINATION":88.9745,"RA_OF_ASC_NODE":67.1346,"ARG_OF_PERICENTER":32.1827,"MEAN_ANOMALY":327.9823,"EPHEMERIS_TYPE":0,"CLASSIFICATION_TYPE":"U","NORAD_CAT_ID":61568,"ELEMENT_SET_NO":999,"REV_AT_EPOCH":8200,"BSTAR":0.00047108994,"MEAN_MOTION_DOT":1.185e-5,"MEAN_MOTION_DDOT":0},{"OBJECT_NAME":"QIANFAN-36","OBJECT_ID":"2024-185T","EPOCH":"2026-03-05T15:10:53.685120","MEAN_MOTION":13.55613731,"ECCENTRICITY":0.00070014,"INCLINATION":88.9717,"RA_OF_ASC_NODE":72.3932,"ARG_OF_PERICENTER":146.2472,"MEAN_ANOMALY":213.9129,"EPHEMERIS_TYPE":0,"CLASSIFICATION_TYPE":"U","NORAD_CAT_ID":61569,"ELEMENT_SET_NO":999,"REV_AT_EPOCH":7915,"BSTAR":0.00016060301,"MEAN_MOTION_DOT":1.24e-6,"MEAN_MOTION_DDOT":0},{"OBJECT_NAME":"QIANFAN-37","OBJECT_ID":"2024-232B","EPOCH":"2026-03-05T15:32:52.577664","MEAN_MOTION":13.51005328,"ECCENTRICITY":0.00017176,"INCLINATION":89.0052,"RA_OF_ASC_NODE":32.9548,"ARG_OF_PERICENTER":97.0433,"MEAN_ANOMALY":263.0914,"EPHEMERIS_TYPE":0,"CLASSIFICATION_TYPE":"U","NORAD_CAT_ID":62238,"ELEMENT_SET_NO":999,"REV_AT_EPOCH":11036,"BSTAR":0.00012038127,"MEAN_MOTION_DOT":9.0e-7,"MEAN_MOTION_DDOT":0},{"OBJECT_NAME":"QIANFAN-38","OBJECT_ID":"2024-232C","EPOCH":"2026-03-05T14:21:42.167808","MEAN_MOTION":13.5100389,"ECCENTRICITY":0.00134243,"INCLINATION":89.0059,"RA_OF_ASC_NODE":32.8812,"ARG_OF_PERICENTER":323.4187,"MEAN_ANOMALY":36.6047,"EPHEMERIS_TYPE":0,"CLASSIFICATION_TYPE":"U","NORAD_CAT_ID":62239,"ELEMENT_SET_NO":999,"REV_AT_EPOCH":11041,"BSTAR":0.00011560916,"MEAN_MOTION_DOT":8.7e-7,"MEAN_MOTION_DDOT":0},{"OBJECT_NAME":"QIANFAN-39","OBJECT_ID":"2024-232D","EPOCH":"2026-03-05T14:39:00.281088","MEAN_MOTION":14.25436572,"ECCENTRICITY":0.00165648,"INCLINATION":89.0057,"RA_OF_ASC_NODE":27.8287,"ARG_OF_PERICENTER":159.0167,"MEAN_ANOMALY":201.1709,"EPHEMERIS_TYPE":0,"CLASSIFICATION_TYPE":"U","NORAD_CAT_ID":62240,"ELEMENT_SET_NO":999,"REV_AT_EPOCH":11319,"BSTAR":0.00022226888,"MEAN_MOTION_DOT":5.4e-6,"MEAN_MOTION_DDOT":0},{"OBJECT_NAME":"QIANFAN-40","OBJECT_ID":"2024-232E","EPOCH":"2026-03-05T15:09:06.063552","MEAN_MOTION":13.51003066,"ECCENTRICITY":0.00127315,"INCLINATION":89.0087,"RA_OF_ASC_NODE":32.4856,"ARG_OF_PERICENTER":332.441,"MEAN_ANOMALY":27.6065,"EPHEMERIS_TYPE":0,"CLASSIFICATION_TYPE":"U","NORAD_CAT_ID":62241,"ELEMENT_SET_NO":999,"REV_AT_EPOCH":11078,"BSTAR":0.00010479581,"MEAN_MOTION_DOT":8.0e-7,"MEAN_MOTION_DDOT":0},{"OBJECT_NAME":"QIANFAN-41","OBJECT_ID":"2024-232F","EPOCH":"2026-03-05T15:21:00.699552","MEAN_MOTION":13.51004804,"ECCENTRICITY":0.0012717,"INCLINATION":89.0057,"RA_OF_ASC_NODE":32.8272,"ARG_OF_PERICENTER":319.3604,"MEAN_ANOMALY":40.6597,"EPHEMERIS_TYPE":0,"CLASSIFICATION_TYPE":"U","NORAD_CAT_ID":62242,"ELEMENT_SET_NO":999,"REV_AT_EPOCH":11044,"BSTAR":0.00012969893,"MEAN_MOTION_DOT":9.6e-7,"MEAN_MOTION_DDOT":0},{"OBJECT_NAME":"QIANFAN-42","OBJECT_ID":"2024-232G","EPOCH":"2026-03-05T14:10:54.998112","MEAN_MOTION":14.2453042,"ECCENTRICITY":0.00151841,"INCLINATION":89.0055,"RA_OF_ASC_NODE":27.8904,"ARG_OF_PERICENTER":164.4994,"MEAN_ANOMALY":195.6667,"EPHEMERIS_TYPE":0,"CLASSIFICATION_TYPE":"U","NORAD_CAT_ID":62243,"ELEMENT_SET_NO":999,"REV_AT_EPOCH":11316,"BSTAR":0.00021344811,"MEAN_MOTION_DOT":5.1e-6,"MEAN_MOTION_DDOT":0},{"OBJECT_NAME":"QIANFAN-43","OBJECT_ID":"2024-232H","EPOCH":"2026-03-05T13:28:22.542528","MEAN_MOTION":13.51004794,"ECCENTRICITY":0.00143947,"INCLINATION":89.0061,"RA_OF_ASC_NODE":32.904,"ARG_OF_PERICENTER":324.4287,"MEAN_ANOMALY":35.5904,"EPHEMERIS_TYPE":0,"CLASSIFICATION_TYPE":"U","NORAD_CAT_ID":62244,"ELEMENT_SET_NO":999,"REV_AT_EPOCH":7904,"BSTAR":0.00011817663,"MEAN_MOTION_DOT":8.8e-7,"MEAN_MOTION_DDOT":0},{"OBJECT_NAME":"QIANFAN-44","OBJECT_ID":"2024-232J","EPOCH":"2026-03-05T14:57:15.864192","MEAN_MOTION":13.51002725,"ECCENTRICITY":0.00125312,"INCLINATION":89.006,"RA_OF_ASC_NODE":32.7072,"ARG_OF_PERICENTER":322.0346,"MEAN_ANOMALY":37.9921,"EPHEMERIS_TYPE":0,"CLASSIFICATION_TYPE":"U","NORAD_CAT_ID":62245,"ELEMENT_SET_NO":999,"REV_AT_EPOCH":11052,"BSTAR":9.7739724e-5,"MEAN_MOTION_DOT":7.5e-7,"MEAN_MOTION_DDOT":0},{"OBJECT_NAME":"QIANFAN-45","OBJECT_ID":"2024-232K","EPOCH":"2026-03-05T14:09:54.271008","MEAN_MOTION":13.51000396,"ECCENTRICITY":0.0013176,"INCLINATION":89.0063,"RA_OF_ASC_NODE":32.8599,"ARG_OF_PERICENTER":321.3379,"MEAN_ANOMALY":38.6828,"EPHEMERIS_TYPE":0,"CLASSIFICATION_TYPE":"U","NORAD_CAT_ID":62246,"ELEMENT_SET_NO":999,"REV_AT_EPOCH":11044,"BSTAR":9.0213574e-5,"MEAN_MOTION_DOT":7.0e-7,"MEAN_MOTION_DDOT":0},{"OBJECT_NAME":"QIANFAN-46","OBJECT_ID":"2024-232L","EPOCH":"2026-03-05T14:45:23.624928","MEAN_MOTION":13.51003377,"ECCENTRICITY":0.00134085,"INCLINATION":89.0059,"RA_OF_ASC_NODE":32.923,"ARG_OF_PERICENTER":327.1951,"MEAN_ANOMALY":32.8366,"EPHEMERIS_TYPE":0,"CLASSIFICATION_TYPE":"U","NORAD_CAT_ID":62247,"ELEMENT_SET_NO":999,"REV_AT_EPOCH":11040,"BSTAR":0.00012252677,"MEAN_MOTION_DOT":9.1e-7,"MEAN_MOTION_DDOT":0},{"OBJECT_NAME":"QIANFAN-47","OBJECT_ID":"2024-232M","EPOCH":"2026-03-05T14:51:18.876672","MEAN_MOTION":13.51003227,"ECCENTRICITY":0.00138019,"INCLINATION":89.0055,"RA_OF_ASC_NODE":32.8523,"ARG_OF_PERICENTER":326.0177,"MEAN_ANOMALY":34.0089,"EPHEMERIS_TYPE":0,"CLASSIFICATION_TYPE":"U","NORAD_CAT_ID":62248,"ELEMENT_SET_NO":999,"REV_AT_EPOCH":11043,"BSTAR":9.482837e-5,"MEAN_MOTION_DOT":7.3e-7,"MEAN_MOTION_DDOT":0},{"OBJECT_NAME":"QIANFAN-48","OBJECT_ID":"2024-232N","EPOCH":"2026-03-05T13:58:00.042816","MEAN_MOTION":13.51003399,"ECCENTRICITY":0.0016139,"INCLINATION":89.0059,"RA_OF_ASC_NODE":32.8611,"ARG_OF_PERICENTER":327.871,"MEAN_ANOMALY":32.1457,"EPHEMERIS_TYPE":0,"CLASSIFICATION_TYPE":"U","NORAD_CAT_ID":62249,"ELEMENT_SET_NO":999,"REV_AT_EPOCH":11043,"BSTAR":8.7476185e-5,"MEAN_MOTION_DOT":6.8e-7,"MEAN_MOTION_DDOT":0},{"OBJECT_NAME":"QIANFAN-49","OBJECT_ID":"2024-232P","EPOCH":"2026-03-05T15:26:52.941984","MEAN_MOTION":13.51002536,"ECCENTRICITY":0.00130481,"INCLINATION":89.0058,"RA_OF_ASC_NODE":32.8668,"ARG_OF_PERICENTER":323.2939,"MEAN_ANOMALY":36.7317,"EPHEMERIS_TYPE":0,"CLASSIFICATION_TYPE":"U","NORAD_CAT_ID":62250,"ELEMENT_SET_NO":999,"REV_AT_EPOCH":7903,"BSTAR":0.00010034555,"MEAN_MOTION_DOT":7.7e-7,"MEAN_MOTION_DDOT":0},{"OBJECT_NAME":"QIANFAN-50","OBJECT_ID":"2024-232Q","EPOCH":"2026-03-05T14:15:45.837792","MEAN_MOTION":13.51003479,"ECCENTRICITY":0.0014742,"INCLINATION":89.0064,"RA_OF_ASC_NODE":32.8844,"ARG_OF_PERICENTER":324.0728,"MEAN_ANOMALY":35.9431,"EPHEMERIS_TYPE":0,"CLASSIFICATION_TYPE":"U","NORAD_CAT_ID":62251,"ELEMENT_SET_NO":999,"REV_AT_EPOCH":7905,"BSTAR":0.00010752394,"MEAN_MOTION_DOT":8.1e-7,"MEAN_MOTION_DDOT":0},{"OBJECT_NAME":"QIANFAN-51","OBJECT_ID":"2024-232R","EPOCH":"2026-03-05T13:52:06.602880","MEAN_MOTION":13.51004282,"ECCENTRICITY":0.00123778,"INCLINATION":89.0058,"RA_OF_ASC_NODE":32.8748,"ARG_OF_PERICENTER":329.4544,"MEAN_ANOMALY":30.5885,"EPHEMERIS_TYPE":0,"CLASSIFICATION_TYPE":"U","NORAD_CAT_ID":62252,"ELEMENT_SET_NO":999,"REV_AT_EPOCH":7904,"BSTAR":9.7772902e-5,"MEAN_MOTION_DOT":7.5e-7,"MEAN_MOTION_DDOT":0}]
